{
  "type": "FeatureCollection",
  "features": [
    {
      "type": "Feature",
      "properties": {
        "norad_id": 31194,
        "name": "FENGYUN 1C DEB",
        "group": "fengyun-1c-debris",
        "lat": 20.453311186473215,
        "lon": 56.976477159299286,
        "alt_km": 793.8296193815695,
        "timestamp": "2025-12-10T14:53:37.372379+00:00",
        "meta_object_name": "FENGYUN 1C DEB",
        "meta_object_id": "1999-025BJY",
        "meta_epoch": "2025-12-10T04:07:14.212992",
        "meta_mean_motion": 14.36623879,
        "meta_eccentricity": 0.00574901,
        "meta_inclination": 98.9628,
        "meta_ra_of_asc_node": 233.1351,
        "meta_arg_of_pericenter": 286.8811,
        "meta_mean_anomaly": 72.6075,
        "meta_ephemeris_type": 0,
        "meta_classification_type": "U",
        "meta_norad_cat_id": 31194,
        "meta_element_set_no": 999,
        "meta_rev_at_epoch": 97090,
        "meta_bstar": 0.0014775889,
        "meta_mean_motion_dot": 4.384e-05,
        "meta_mean_motion_ddot": 0,
        "tle_line1": "1 31194U 99025BJY 25344.17169228  .00004384  00000+0  14776-2 0  9992",
        "tle_line2": "2 31194  98.9628 233.1351 0057490 286.8811  72.6075 14.36623879970900"
      },
      "geometry": {
        "type": "Point",
        "coordinates": [
          56.976477159299286,
          20.453311186473215
        ]
      }
    },
    {
      "type": "Feature",
      "properties": {
        "norad_id": 31195,
        "name": "FENGYUN 1C DEB",
        "group": "fengyun-1c-debris",
        "lat": 13.175046133491653,
        "lon": -159.93073079362532,
        "alt_km": 750.6374195958078,
        "timestamp": "2025-12-10T14:53:37.372389+00:00",
        "meta_object_name": "FENGYUN 1C DEB",
        "meta_object_id": "1999-025BJZ",
        "meta_epoch": "2025-12-07T19:35:03.175008",
        "meta_mean_motion": 14.07975963,
        "meta_eccentricity": 0.0171658,
        "meta_inclination": 98.7796,
        "meta_ra_of_asc_node": 15.2673,
        "meta_arg_of_pericenter": 195.0493,
        "meta_mean_anomaly": 164.5533,
        "meta_ephemeris_type": 0,
        "meta_classification_type": "U",
        "meta_norad_cat_id": 31195,
        "meta_element_set_no": 999,
        "meta_rev_at_epoch": 96029,
        "meta_bstar": 0.00034191193,
        "meta_mean_motion_dot": 6.22e-06,
        "meta_mean_motion_ddot": 0,
        "tle_line1": "1 31195U 99025BJZ 25341.81600897  .00000622  00000+0  34191-3 0  9998",
        "tle_line2": "2 31195  98.7796  15.2673 0171658 195.0493 164.5533 14.07975963960294"
      },
      "geometry": {
        "type": "Point",
        "coordinates": [
          -159.93073079362532,
          13.175046133491653
        ]
      }
    },
    {
      "type": "Feature",
      "properties": {
        "norad_id": 31196,
        "name": "FENGYUN 1C DEB",
        "group": "fengyun-1c-debris",
        "lat": -19.735190726833284,
        "lon": 0.9881261596050799,
        "alt_km": 833.7067303434369,
        "timestamp": "2025-12-10T14:53:37.372398+00:00",
        "meta_object_name": "FENGYUN 1C DEB",
        "meta_object_id": "1999-025BKA",
        "meta_epoch": "2025-12-08T19:11:13.432992",
        "meta_mean_motion": 14.25445822,
        "meta_eccentricity": 0.00577315,
        "meta_inclination": 98.5268,
        "meta_ra_of_asc_node": 356.1324,
        "meta_arg_of_pericenter": 223.7518,
        "meta_mean_anomaly": 135.908,
        "meta_ephemeris_type": 0,
        "meta_classification_type": "U",
        "meta_norad_cat_id": 31196,
        "meta_element_set_no": 999,
        "meta_rev_at_epoch": 63439,
        "meta_bstar": 0.00095478472,
        "meta_mean_motion_dot": 2.251e-05,
        "meta_mean_motion_ddot": 0,
        "tle_line1": "1 31196U 99025BKA 25342.79946103  .00002251  00000+0  95478-3 0  9995",
        "tle_line2": "2 31196  98.5268 356.1324 0057731 223.7518 135.9080 14.25445822634393"
      },
      "geometry": {
        "type": "Point",
        "coordinates": [
          0.9881261596050799,
          -19.735190726833284
        ]
      }
    },
    {
      "type": "Feature",
      "properties": {
        "norad_id": 31198,
        "name": "FENGYUN 1C DEB",
        "group": "fengyun-1c-debris",
        "lat": 20.827152465495747,
        "lon": 85.3842850126182,
        "alt_km": 841.9197049432587,
        "timestamp": "2025-12-10T14:53:37.372407+00:00",
        "meta_object_name": "FENGYUN 1C DEB",
        "meta_object_id": "1999-025BKC",
        "meta_epoch": "2025-12-09T12:36:36.042624",
        "meta_mean_motion": 13.75520391,
        "meta_eccentricity": 0.02039968,
        "meta_inclination": 98.6127,
        "meta_ra_of_asc_node": 87.699,
        "meta_arg_of_pericenter": 0.1889,
        "meta_mean_anomaly": 359.9306,
        "meta_ephemeris_type": 0,
        "meta_classification_type": "U",
        "meta_norad_cat_id": 31198,
        "meta_element_set_no": 999,
        "meta_rev_at_epoch": 62709,
        "meta_bstar": 0.0001575656,
        "meta_mean_motion_dot": 1.38e-06,
        "meta_mean_motion_ddot": 0,
        "tle_line1": "1 31198U 99025BKC 25343.52541716  .00000138  00000+0  15757-3 0  9994",
        "tle_line2": "2 31198  98.6127  87.6990 0203996   0.1889 359.9306 13.75520391627096"
      },
      "geometry": {
        "type": "Point",
        "coordinates": [
          85.3842850126182,
          20.827152465495747
        ]
      }
    },
    {
      "type": "Feature",
      "properties": {
        "norad_id": 31199,
        "name": "FENGYUN 1C DEB",
        "group": "fengyun-1c-debris",
        "lat": -79.19299194211963,
        "lon": 93.98433459588946,
        "alt_km": 820.7656619224817,
        "timestamp": "2025-12-10T14:53:37.372416+00:00",
        "meta_object_name": "FENGYUN 1C DEB",
        "meta_object_id": "1999-025BKD",
        "meta_epoch": "2025-12-05T16:58:40.008864",
        "meta_mean_motion": 14.09979297,
        "meta_eccentricity": 0.00635718,
        "meta_inclination": 98.7162,
        "meta_ra_of_asc_node": 322.7056,
        "meta_arg_of_pericenter": 279.9042,
        "meta_mean_anomaly": 258.7122,
        "meta_ephemeris_type": 0,
        "meta_classification_type": "U",
        "meta_norad_cat_id": 31199,
        "meta_element_set_no": 999,
        "meta_rev_at_epoch": 96060,
        "meta_bstar": 0.00037158052,
        "meta_mean_motion_dot": 6.24e-06,
        "meta_mean_motion_ddot": 0,
        "tle_line1": "1 31199U 99025BKD 25339.70740751  .00000624  00000+0  37158-3 0  9999",
        "tle_line2": "2 31199  98.7162 322.7056 0063571 279.9042 258.7122 14.09979297960603"
      },
      "geometry": {
        "type": "Point",
        "coordinates": [
          93.98433459588946,
          -79.19299194211963
        ]
      }
    },
    {
      "type": "Feature",
      "properties": {
        "norad_id": 31201,
        "name": "FENGYUN 1C DEB",
        "group": "fengyun-1c-debris",
        "lat": -75.05997803713004,
        "lon": -118.14851291059522,
        "alt_km": 754.8606506325277,
        "timestamp": "2025-12-10T14:53:37.372426+00:00",
        "meta_object_name": "FENGYUN 1C DEB",
        "meta_object_id": "1999-025BKF",
        "meta_epoch": "2025-12-10T02:33:39.018240",
        "meta_mean_motion": 14.35142048,
        "meta_eccentricity": 0.01428384,
        "meta_inclination": 99.0015,
        "meta_ra_of_asc_node": 204.8695,
        "meta_arg_of_pericenter": 358.9648,
        "meta_mean_anomaly": 151.1982,
        "meta_ephemeris_type": 0,
        "meta_classification_type": "U",
        "meta_norad_cat_id": 31201,
        "meta_element_set_no": 999,
        "meta_rev_at_epoch": 97213,
        "meta_bstar": 0.0012050616,
        "meta_mean_motion_dot": 3.813e-05,
        "meta_mean_motion_ddot": 0,
        "tle_line1": "1 31201U 99025BKF 25344.10670160  .00003813  00000+0  12051-2 0  9996",
        "tle_line2": "2 31201  99.0015 204.8695 0142838 358.9648 151.1982 14.35142048972137"
      },
      "geometry": {
        "type": "Point",
        "coordinates": [
          -118.14851291059522,
          -75.05997803713004
        ]
      }
    },
    {
      "type": "Feature",
      "properties": {
        "norad_id": 31202,
        "name": "FENGYUN 1C DEB",
        "group": "fengyun-1c-debris",
        "lat": 60.43762985212867,
        "lon": 18.512156880382673,
        "alt_km": 636.7190201857211,
        "timestamp": "2025-12-10T14:53:37.372435+00:00",
        "meta_object_name": "FENGYUN 1C DEB",
        "meta_object_id": "1999-025BKG",
        "meta_epoch": "2025-12-09T15:01:36.990912",
        "meta_mean_motion": 14.83995916,
        "meta_eccentricity": 0.0068102,
        "meta_inclination": 96.5734,
        "meta_ra_of_asc_node": 29.422,
        "meta_arg_of_pericenter": 187.7541,
        "meta_mean_anomaly": 324.6432,
        "meta_ephemeris_type": 0,
        "meta_classification_type": "U",
        "meta_norad_cat_id": 31202,
        "meta_element_set_no": 999,
        "meta_rev_at_epoch": 99108,
        "meta_bstar": 0.001491,
        "meta_mean_motion_dot": 0.00012906,
        "meta_mean_motion_ddot": 0,
        "tle_line1": "1 31202U 99025BKG 25343.62612258  .00012906  00000+0  14910-2 0  9996",
        "tle_line2": "2 31202  96.5734  29.4220 0068102 187.7541 324.6432 14.83995916991089"
      },
      "geometry": {
        "type": "Point",
        "coordinates": [
          18.512156880382673,
          60.43762985212867
        ]
      }
    }
  ]
}